IRIDIUM 171             
1 43929U 19002H   24169.87100758  .00000373  00000+0  12602-3 0  9993
2 43929  86.3968 298.5822 0002395  92.3576 267.7894 14.34219310284427
IRIDIUM 170             
1 43930U 19002J   24169.87167439  .00001456  00000+0  22694-3 0  9999
2 43930  86.6087 298.4014 0002245  88.4748 271.6726 14.72259820291953
IRIDIUM 167             
1 43931U 19002K   24169.86466366  .00000029  00000+0  34367-5 0  9997
2 43931  86.3958 298.3751 0002231  94.3210 265.8241 14.34217878284426
IRIDIUM 181             
1 56726U 23068S   24170.42399139  .00000514  00000+0  14604-3 0  9996
2 56726  86.8637 351.9354 0002349  94.6614 265.4856 14.43604188 57315
IRIDIUM 177             
1 56727U 23068T   24170.44204913  .00001933  00000+0  25093-3 0  9994
2 56727  86.1964 314.7636 0002612  85.6590 274.4929 14.80223886 58560
IRIDIUM 174             
1 56728U 23068U   24169.89580609  .00002036  00000+0  26440-3 0  9993
2 56728  86.1972 315.1274 0002153  96.9319 263.2147 14.80236036 58487
IRIDIUM 178             
1 56729U 23068V   24169.95804414  .00001923  00000+0  24963-3 0  9996
2 56729  86.5778 332.6002 0001875  87.7176 272.4260 14.80241186 58499
IRIDIUM 179             
1 56730U 23068W   24170.49340288  .00001771  00000+0  22968-3 0  9997
2 56730  86.6787 336.5221 0002022  92.2736 267.8717 14.80222812 58575
